#aV2023  2 24  0  0  0.00000000     288 DD+AD WGS84 FIT  NGA
## 2250 432000.00000000   300.00000000 59999 0.0000000000000
+   32     1  2  3  4  5  6  7  8  9 10 11 12 13 14 15 16 17
+         18 19 20 21 22 23 24 25 26 27 28 29 30 31 32  0  0
+          0  0  0  0  0  0  0  0  0  0  0  0  0  0  0  0  0
+          0  0  0  0  0  0  0  0  0  0  0  0  0  0  0  0  0
+          0  0  0  0  0  0  0  0  0  0  0  0  0  0  0  0  0
++         2  2  2  2  2  2  2  2  2  2  2  2  2  2  2  2  2
++         2  2  2  2  2  2  2  2  2  2  2  2  2  2  2  0  0
++         0  0  0  0  0  0  0  0  0  0  0  0  0  0  0  0  0
++         0  0  0  0  0  0  0  0  0  0  0  0  0  0  0  0  0
++         0  0  0  0  0  0  0  0  0  0  0  0  0  0  0  0  0
%c cc cc ccc ccc cccc cccc cccc cccc ccccc ccccc ccccc ccccc
%c cc cc ccc ccc cccc cccc cccc cccc ccccc ccccc ccccc ccccc
%f  0.0000000  0.000000000  0.00000000000  0.000000000000000
%f  0.0000000  0.000000000  0.00000000000  0.000000000000000
%i    0    0    0    0      0      0      0      0         0
%i    0    0    0    0      0      0      0      0         0
/*      NGA, ST. LOUIS,MO.                                  
/*   EPHEMERIS COMPUTED FROM 2 DAYS OF DATA                 
/*   EPOCHA v8 SMOOTHER                                     
/*   G2139 IERS2010 SATIGS SATAPC                           
*  2023  2 24 12 40  0.00000000
P  1 -22344.719214 -14642.330214   1128.335318    209.049375                    
V  1   -558.365992  -2354.125212 -32103.748794     -0.040891                    
P  2  23829.932342  10728.787585  -3326.445971   -618.651605                    
V  2   2984.599970   4943.853130  31682.481911      0.026440                    
P  3 -12656.611681 -12006.928570  19940.406244   -359.067122                    
V  3   2677.863544 -25384.050959 -13390.468982      0.052472                    
P  4 -20477.595931  -3508.512421  16619.822837    -20.541256                    
V  4  18502.096114 -10161.360371  20552.080524      0.083517                    
P  5   5991.122443  24090.429425  -9444.314590   -117.139539                    
V  5  -2771.233767  11724.704528  28777.574098     -0.014699                    
P  6  -7643.820880  12488.506707  22225.294730    575.856403                    
V  6 -23151.074648 -15708.486586    959.009850      0.038733                    
P  7 -22765.844746  -4170.431556 -13018.407825    234.976869                    
V  7 -12867.062884 -11461.971546  24844.872671     -0.073091                    
P  8 -10520.641302 -11546.637147 -21578.378308   -110.026676                    
V  8  24023.865059 -12797.544198  -4492.618547     -0.018662                    
P  9 -24542.366362   6411.386865   7881.137363   -212.232138                    
V  9   7713.404002  -7078.850044  29455.180344      0.071928                    
P 10  11193.706778 -18753.805416 -14717.118233    -26.047530                    
V 10    697.530130  19175.059929 -23923.962412     -0.016492                    
P 11   5849.899614  19334.655949  17273.709421   -112.986197                    
V 11 -18492.656722 -11823.265488  19475.885661     -0.106137                    
P 12  11163.383312  14619.324676  18914.866504   -344.208263                    
V 12  -4703.549090  24147.956264 -15560.653711     -0.046093                    
P 13   1949.528588  15152.029774 -21887.239133    481.191303                    
V 13 -26100.436013   8220.152024   3583.059452      0.059788                    
P 14 -13350.265392  16122.072973 -16267.023191    -19.404949                    
V 14    -65.000713 -20863.824919 -20746.076109      0.093904                    
P 15  12335.181859  10820.138847 -21367.633576     16.260052                    
V 15 -21484.225132  14956.926285  -4661.180972      0.033357                    
P 16  -1499.058731 -25175.780674  -7829.772185   -518.581807                    
V 16   4280.527542  -9098.958540  30027.880847      0.018477                    
P 17 -22217.950907  13573.348572   5944.225478    701.988555                    
V 17  -7237.526117    710.800985 -30836.487695      0.022400                    
P 18  20774.739380    736.082725 -16612.948829   -154.053896                    
V 18  16363.340081  13267.359728  20906.436953     -0.160236                    
P 19 -15305.138911  15909.693622  14333.422783    281.988415                    
V 19 -18254.687569   4457.150870 -24323.290084      0.050884                    
P 20   1052.033541  26570.573164   2141.225368    448.740894                    
V 20  -3311.208552  -2356.684661  31152.574620     -0.023608                    
P 21 -20207.874886 -16419.359583  -6518.122032    154.156156                    
V 21   8763.212909   2459.938465 -29811.436043      0.001435                    
P 22  11473.902706 -17196.270896  17016.589132    433.466057                    
V 22  20039.303222  -5971.251766 -20234.149345      0.075562                    
P 23  14589.996108  -7193.705906 -20961.625511      7.591696                    
V 23   -255.305976  26635.265862  -9456.475485      0.017732                    
P 24  21793.444934  15207.129929  -3722.780522    -87.095578                    
V 24  -5286.455760    743.124438 -30418.969336     -0.157864                    
P 25  14953.078247   3751.366269  21336.192392    422.781685                    
V 25  -1820.334111  27776.843165  -3287.013921      0.031560                    
P 26   4831.708721 -25097.823456   6424.927491    241.730108                    
V 26   3762.101272   8428.054614  29911.017424      0.002367                    
P 27   1509.020703 -16651.947487 -20773.005226     94.853007                    
V 27  23692.786076 -10568.085468  10719.833990     -0.089052                    
P 28   9400.358313 -11994.040481  21720.898801     24.456570                    
V 28  23392.668520  14751.236109  -1981.165789      0.133078                    
P 29  24246.672453  -1891.905390  10718.590173   -587.818918                    
V 29 -11943.104574   6854.003346  28021.914732     -0.020220                    
P 30 -15390.063695   7535.035233 -20255.058284   -529.187732                    
V 30 -20819.219736 -15553.827599   9723.909640      0.013640                    
P 31   6425.438921 -14024.175662  21416.900345   -210.093988                    
V 31  22921.094403  15492.565126   3689.182932     -0.010021                    
P 32  19630.285008 -15981.800292   7862.176143   -405.801423                    
V 32  10026.682355  -1891.180659 -29707.881276     -0.113684                    
EOF
